OBJECT_NAME,OBJECT_ID,EPOCH,MEAN_MOTION,ECCENTRICITY,INCLINATION,RA_OF_ASC_NODE,ARG_OF_PERICENTER,MEAN_ANOMALY,EPHEMERIS_TYPE,CLASSIFICATION_TYPE,NORAD_CAT_ID,ELEMENT_SET_NO,REV_AT_EPOCH,BSTAR,MEAN_MOTION_DOT,MEAN_MOTION_DDOT
SITRO-AIS 8 (ANOKHIN),2023-091AD,2026-06-11T19:07:26.387616,15.31987482,.0011857,97.5066,228.2121,116.5208,243.7251,0,U,57193,999,16362,.4514E-3,.13901E-3,0
SITRO-AIS 7 (FARTUSHNIY),2023-091AE,2026-06-11T19:18:28.468224,15.25520976,.0012903,97.5074,225.6281,124.0209,236.2256,0,U,57194,999,16345,.3659E-3,.9225E-4,0
AVION KALUGA 650,2023-091AF,2026-06-11T16:47:03.535872,15.20294037,.0011743,97.5096,222.2979,125.8979,234.3348,0,U,57195,999,16319,.25284E-3,.5432E-4,0
HORS 2,2023-091AG,2026-06-11T19:23:04.282080,15.31755016,.0009494,97.5097,229.7641,103.8373,256.3925,0,U,57196,999,16370,.4394E-3,.1342E-3,0
A-SEANSAT-PG1,2023-091AH,2026-06-11T19:15:30.530016,15.36773280,.0008504,97.5088,232.2692,101.0156,259.2045,0,U,57197,999,16388,.47809E-3,.17132E-3,0
SITRO-AIS 10 (BURDAEV),2023-091AK,2026-06-11T18:51:43.481088,15.38404217,.0007799,97.5089,233.1994,96.2416,263.9717,0,U,57199,999,16393,.4848E-3,.18316E-3,0
SITRO-AIS 9 (SHCHUKIN),2023-091AM,2026-06-11T19:27:16.848288,15.37922578,.0008058,97.5086,232.9589,96.3142,263.9021,0,U,57201,999,16392,.47729E-3,.1775E-3,0
UTMN 2 (RS27S),2023-091AP,2026-06-11T20:03:05.262048,15.31919142,.0009469,97.5095,229.9825,99.6411,260.5900,0,U,57203,999,16372,.37708E-3,.11562E-3,0
SITRO-AIS 12 (SMIRENNIY),2023-091AQ,2026-06-11T19:15:14.336928,15.38211937,.0007622,97.5100,233.4139,91.4245,268.7873,0,U,57204,999,16394,.48431E-3,.18182E-3,0
SITRO-AIS 11 (SHEFFER),2023-091AU,2026-06-11T19:36:41.466240,15.38634131,.0007525,97.5098,233.6726,91.2875,268.9232,0,U,57208,999,16396,.47695E-3,.18151E-3,0
H2SAT (HEINRICH HERTZ),2023-093A,2026-06-11T14:57:36.957024,1.00270179,.0000654,0.0589,109.4090,54.0522,321.6084,0,U,57213,999,1086,0,.19E-6,0
KUZGTU 1 (RS47S),2023-091AV,2026-06-11T19:13:53.658336,15.29737287,.0012342,97.5072,227.2266,114.6062,245.6466,0,U,57217,999,16355,.40017E-3,.11481E-3,0
QIANKUN-1,2023-103B,2026-06-10T15:16:35.632128,16.07641077,.00279364,96.1537,206.9401,148.1317,212.1666,0,U,57422,999,16624,.19494773E-4,.15936E-3,.1768719E-5
FENGYUN 3F,2023-111A,2026-06-11T19:55:33.669984,14.19938176,.0001593,98.6841,232.9385,97.2141,262.9217,0,U,57490,999,14810,.32353E-4,.25E-6,0
HJ-2F,2023-116A,2026-06-11T20:41:49.348608,15.22244895,.0010287,97.3841,168.1737,67.8178,292.4149,0,U,57519,999,15794,.30346E-3,.692E-4,0
XRISM,2023-137A,2026-06-11T01:16:21.757440,15.12412932,.00079432,31.0028,39.3338,262.6424,97.3312,0,U,57800,999,15193,.24618033E-3,.4483E-4,0
METEOR-M2 4,2024-039A,2026-06-11T21:47:12.122016,14.22429046,.0006978,98.7008,122.2722,175.9075,184.2161,0,U,59051,999,11851,.20787E-4,.2E-7,0
GRBBETA,2024-128C,2026-06-11T13:53:17.973600,15.06603237,.0041389,61.9897,235.9431,133.4300,227.0250,0,U,60237,999,10542,.22564E-3,.3203E-4,0
TRANSPORTER-11 OBJECT A,2024-149A,2026-06-11T19:12:49.984128,15.32819437,.0002311,97.3735,242.7473,215.8399,144.2688,0,U,60468,999,10123,.24639E-3,.7732E-4,0
WARATAH SEED-1,2024-149B,2026-06-11T18:26:53.767104,15.35810185,.0001036,97.3694,243.3385,194.5137,165.6077,0,U,60469,999,10128,.36275E-3,.12564E-3,0
PHISAT 2,2024-149C,2026-06-11T11:48:15.522048,15.30966806,.0000503,97.3758,241.7398,181.6159,178.5080,0,U,60470,999,10112,.22473E-3,.6647E-4,0
LEMUR-2-TOMATOKECHUP,2024-149D,2026-06-11T16:48:09.186048,15.35915397,.0000895,97.3800,244.7331,188.9274,171.1954,0,U,60471,999,10132,.29452E-3,.10217E-3,0
CONNECTA IOT-1,2024-149E,2026-06-11T18:37:08.935104,15.23498840,.0000733,97.3762,239.1584,353.2887,6.8340,0,U,60472,999,10097,.15546E-3,.3639E-4,0
LOPEN,2024-149F,2026-06-11T19:13:16.910688,15.39532587,.0000303,97.3783,246.1270,197.0946,163.0289,0,U,60473,999,10143,.3625E-3,.14169E-3,0
ROCK,2024-149G,2026-06-11T17:20:19.601376,15.39526496,.0000575,97.3776,246.0638,209.0921,151.0293,0,U,60474,999,10142,.36045E-3,.14085E-3,0
CONNECTA IOT-3,2024-149H,2026-06-11T17:33:24.761376,15.23510510,.0001348,97.3737,238.8696,296.1017,64.0082,0,U,60475,999,10097,.15283E-3,.3578E-4,0
QUBE,2024-149J,2026-06-11T05:20:51.672192,15.46925472,.0001418,97.3777,248.5427,211.1321,148.9844,0,U,60476,999,10154,.37811E-3,.18968E-3,0
WREN-1,2024-149L,2026-06-11T05:26:47.040576,15.41320918,.0002956,97.3767,246.2779,278.3344,81.7568,0,U,60478,999,10140,.41244E-3,.17121E-3,0
TOMORROW-S1,2024-149M,2026-06-11T18:47:16.365120,15.32642649,.0001082,97.3754,243.2720,245.5720,114.5409,0,U,60479,999,10126,.21823E-3,.68E-4,0
