SITRO-AIS 8 (ANOKHIN)   
1 57193U 23091AD  26162.79683319  .00013901  00000+0  45140-3 0  9993
2 57193  97.5066 228.2121 0011857 116.5208 243.7251 15.31987482163623
SITRO-AIS 7 (FARTUSHNIY)
1 57194U 23091AE  26162.80449616  .00009225  00000+0  36590-3 0  9999
2 57194  97.5074 225.6281 0012903 124.0209 236.2256 15.25520976163456
AVION KALUGA 650        
1 57195U 23091AF  26162.69934648  .00005432  00000+0  25284-3 0  9995
2 57195  97.5096 222.2979 0011743 125.8979 234.3348 15.20294037163195
HORS 2                  
1 57196U 23091AG  26162.80768845  .00013420  00000+0  43940-3 0  9998
2 57196  97.5097 229.7641 0009494 103.8373 256.3925 15.31755016163702
A-SEANSAT-PG1           
1 57197U 23091AH  26162.80243669  .00017132  00000+0  47809-3 0  9993
2 57197  97.5088 232.2692 0008504 101.0156 259.2045 15.36773280163880
SITRO-AIS 10 (BURDAEV)  
1 57199U 23091AK  26162.78591992  .00018316  00000+0  48480-3 0  9998
2 57199  97.5089 233.1994 0007799  96.2416 263.9717 15.38404217163934
SITRO-AIS 9 (SHCHUKIN)  
1 57201U 23091AM  26162.81061167  .00017750  00000+0  47729-3 0  9998
2 57201  97.5086 232.9589 0008058  96.3142 263.9021 15.37922578163929
UTMN 2 (RS27S)          
1 57203U 23091AP  26162.83547757  .00011562  00000+0  37708-3 0  9997
2 57203  97.5095 229.9825 0009469  99.6411 260.5900 15.31919142163726
SITRO-AIS 12 (SMIRENNIY)
1 57204U 23091AQ  26162.80224927  .00018182  00000+0  48431-3 0  9996
2 57204  97.5100 233.4139 0007622  91.4245 268.7873 15.38211937163943
SITRO-AIS 11 (SHEFFER)  
1 57208U 23091AU  26162.81714660  .00018151  00000+0  47695-3 0  9996
2 57208  97.5098 233.6726 0007525  91.2875 268.9232 15.38634131163964
H2SAT (HEINRICH HERTZ)  
1 57213U 23093A   26162.62334441  .00000019  00000+0  00000+0 0  9997
2 57213   0.0589 109.4090 0000654  54.0522 321.6084  1.00270179 10864
KUZGTU 1 (RS47S)        
1 57217U 23091AV  26162.80131549  .00011481  00000+0  40017-3 0  9994
2 57217  97.5072 227.2266 0012342 114.6062 245.6466 15.29737287163557
QIANKUN-1               
1 57422U 23103B   26161.63652352  .00015936  17687-5  19495-4 0  9997
2 57422  96.1537 206.9401 0027936 148.1317 212.1666 16.07641077166249
FENGYUN 3F              
1 57490U 23111A   26162.83025081  .00000025  00000+0  32353-4 0  9993
2 57490  98.6841 232.9385 0001593  97.2141 262.9217 14.19938176148109
HJ-2F                   
1 57519U 23116A   26162.86237672  .00006920  00000+0  30346-3 0  9993
2 57519  97.3841 168.1737 0010287  67.8178 292.4149 15.22244895157948
XRISM                   
1 57800U 23137A   26162.05302960  .00004483  00000+0  24618-3 0  9990
2 57800  31.0028  39.3338 0007943 262.6424  97.3312 15.12412932151938
METEOR-M2 4             
1 59051U 24039A   26162.90777919  .00000002  00000+0  20787-4 0  9993
2 59051  98.7008 122.2722 0006978 175.9075 184.2161 14.22429046118519
GRBBETA                 
1 60237U 24128C   26162.57868025  .00003203  00000+0  22564-3 0  9992
2 60237  61.9897 235.9431 0041389 133.4300 227.0250 15.06603237105429
TRANSPORTER-11 OBJECT A 
1 60468U 24149A   26162.80057852  .00007732  00000+0  24639-3 0  9991
2 60468  97.3735 242.7473 0002311 215.8399 144.2688 15.32819437101236
WARATAH SEED-1          
1 60469U 24149B   26162.76867786  .00012564  00000+0  36275-3 0  9990
2 60469  97.3694 243.3385 0001036 194.5137 165.6077 15.35810185101284
PHISAT 2                
1 60470U 24149C   26162.49184632  .00006647  00000+0  22473-3 0  9994
2 60470  97.3758 241.7398 0000503 181.6159 178.5080 15.30966806101129
LEMUR-2-TOMATOKECHUP    
1 60471U 24149D   26162.70010632  .00010217  00000+0  29452-3 0  9999
2 60471  97.3800 244.7331 0000895 188.9274 171.1954 15.35915397101325
CONNECTA IOT-1          
1 60472U 24149E   26162.77579786  .00003639  00000+0  15546-3 0  9996
2 60472  97.3762 239.1584 0000733 353.2887   6.8340 15.23498840100978
LOPEN                   
1 60473U 24149F   26162.80089017  .00014169  00000+0  36250-3 0  9999
2 60473  97.3783 246.1270 0000303 197.0946 163.0289 15.39532587101439
ROCK                    
1 60474U 24149G   26162.72244909  .00014085  00000+0  36045-3 0  9993
2 60474  97.3776 246.0638 0000575 209.0921 151.0293 15.39526496101420
CONNECTA IOT-3          
1 60475U 24149H   26162.73153659  .00003578  00000+0  15283-3 0  9992
2 60475  97.3737 238.8696 0001348 296.1017  64.0082 15.23510510100974
QUBE                    
1 60476U 24149J   26162.22282028  .00018968  00000+0  37811-3 0  9990
2 60476  97.3777 248.5427 0001418 211.1321 148.9844 15.46925472101546
WREN-1                  
1 60478U 24149L   26162.22693334  .00017121  00000+0  41244-3 0  9993
2 60478  97.3767 246.2779 0002956 278.3344  81.7568 15.41320918101401
TOMORROW-S1             
1 60479U 24149M   26162.78282830  .00006800  00000+0  21823-3 0  9993
2 60479  97.3754 243.2720 0001082 245.5720 114.5409 15.32642649101265
